OBJECT_NAME,OBJECT_ID,EPOCH,MEAN_MOTION,ECCENTRICITY,INCLINATION,RA_OF_ASC_NODE,ARG_OF_PERICENTER,MEAN_ANOMALY,EPHEMERIS_TYPE,CLASSIFICATION_TYPE,NORAD_CAT_ID,ELEMENT_SET_NO,REV_AT_EPOCH,BSTAR,MEAN_MOTION_DOT,MEAN_MOTION_DDOT
PERSEUS-M1,2014-033AF,2026-06-22T18:57:15.300288,14.95646898,.00099183,97.9644,118.0134,280.1587,79.8514,0,U,40039,999,65147,.14957901E-3,.1603E-4,0
POLYITAN-1,2014-033AJ,2026-06-22T12:49:00.321600,15.33415687,.00088567,98.0946,200.3013,126.2790,233.9269,0,U,40042,999,65441,.45497437E-3,.14633E-3,0
TIGRISAT,2014-033AK,2026-06-22T04:03:10.904544,14.85177117,.00504016,97.7838,323.0661,59.2753,301.3413,0,U,40043,999,64636,.16190855E-3,.1363E-4,0
AEROCUBE 6A,2014-033AM,2026-06-22T16:49:09.404256,14.98148981,.00384746,97.7248,340.5920,359.0702,1.0442,0,U,40045,999,64744,.25295096E-3,.2982E-4,0
AEROCUBE 6B,2014-033AN,2026-06-22T16:44:47.099040,14.99610620,.00379395,97.7245,340.3914,350.1665,9.8811,0,U,40046,999,64758,.27134429E-3,.3328E-4,0
CANX-4,2014-034C,2026-06-22T05:14:09.938112,14.81271990,.00127892,98.3117,48.7158,1.3069,358.8174,0,U,40055,999,64527,.89691837E-4,.642E-5,0
CANX-5,2014-034D,2026-06-22T05:11:49.502688,14.81289258,.00127886,98.3119,48.7580,1.4974,358.6273,0,U,40056,999,63608,.89720859E-4,.643E-5,0
UKUBE-1,2014-037F,2026-06-22T06:12:28.031328,15.13619709,.00029581,98.4241,177.0635,123.4158,236.7353,0,U,40074,999,64932,.32723669E-3,.5801E-4,0
BRITE-PL2 (HEWELIUSZ),2014-049B,2026-06-22T06:15:04.300416,14.94609987,.00154299,97.9103,285.2995,93.1966,267.1019,0,U,40119,999,64220,.16800824E-3,.1763E-4,0
AEROCUBE 5C,2015-058B,2026-06-22T14:26:58.868736,14.91471557,.01310077,64.7658,245.7447,61.1610,300.2579,0,U,40965,999,36646,.13436587E-3,.1406E-4,0
AEROCUBE 7,2015-058C,2026-06-22T13:59:25.043136,14.95749749,.01207392,64.7611,227.9150,59.5511,301.7465,0,U,40966,999,36676,.17106793E-3,.2028E-4,0
FOX-1A (AO-85),2015-058D,2026-06-22T17:14:37.947264,14.90988819,.01307562,64.7742,261.7939,54.4548,306.8672,0,U,40967,999,11439,.14171339E-3,.1472E-4,0
SINOD-D 1,2015-058E,2026-06-22T07:01:39.925344,14.95929765,.01193761,64.7743,242.9236,51.0593,310.1088,0,U,40968,999,11742,.17640022E-3,.2101E-4,0
SNAP-3 ALICE,2015-058G,2026-06-22T11:49:07.774176,15.61246717,.00265813,64.7497,85.5779,9.2814,350.8818,0,U,40970,999,11771,.13730103E-2,.120709E-2,0
LMRST-SAT,2015-058H,2026-06-22T11:22:28.244064,14.90606883,.01323545,64.7748,258.9019,56.5687,304.7999,0,U,40971,999,11434,.13369162E-3,.1369E-4,0
SNAP-3 EDDIE,2015-058J,2026-06-22T03:47:42.838080,15.62434744,.00264459,64.7419,77.4218,13.4086,346.7757,0,U,40972,999,11980,.11312218E-2,.103886E-2,0
PROPCUBE 3,2015-058K,2026-06-22T10:18:38.670336,14.94278583,.01243221,64.7675,236.1562,57.8430,303.4672,0,U,40973,999,11558,.1598105E-3,.182E-4,0
BISONSAT,2015-058L,2026-06-22T09:00:59.494176,15.16296159,.00796731,64.7579,156.8679,45.1640,315.5921,0,U,40974,999,11640,.5005916E-3,.10367E-3,0
SNAP-3 JIMI,2015-058M,2026-06-22T10:45:13.957344,15.02334719,.01065002,64.7635,203.1265,53.2395,307.8442,0,U,40975,999,11501,.24177148E-3,.3434E-4,0
PROPCUBE 1 (FLORA),2015-058N,2026-06-22T18:28:03.481536,14.89240956,.01310452,64.7741,277.9347,58.7558,302.6314,0,U,40976,999,11709,.14301842E-3,.1416E-4,0
SINOD-D 3,2015-058P,2026-06-22T15:54:39.039840,14.94041549,.01195698,64.7721,258.7198,55.9532,305.2865,0,U,40977,999,11557,.17846162E-3,.2017E-4,0
HORYU-4,2016-012D,2026-06-21T22:24:25.763328,16.00402984,.00072332,30.9840,44.0609,302.1792,57.8169,0,U,41340,999,57157,.10041178E-2,.557871E-2,.12890892E-3
RAVAN,2016-067B,2026-06-22T06:09:16.109280,15.55112539,.00035871,97.9878,63.4146,14.8440,345.2917,0,U,41849,999,52848,.60735848E-3,.40935E-3,0
CELTEE 1,2016-067C,2026-06-22T08:13:47.658144,15.19722998,.00012257,98.0670,40.2612,129.7919,230.3422,0,U,41850,999,52666,.17361515E-3,.3631E-4,0
OPTICUBE 04,2016-067D,2026-06-22T15:31:22.486656,15.09678584,.00169943,98.0695,26.2152,98.6741,261.6412,0,U,41851,999,52599,.98856038E-4,.1525E-4,0
AEROCUBE 8D,2016-067E,2026-06-21T13:16:59.376000,15.24447295,.00048914,98.0677,43.0564,112.6989,247.4764,0,U,41852,999,52673,.22182505E-3,.5364E-4,0
AEROCUBE 8C,2016-067F,2026-06-22T10:20:29.867136,15.24707440,.00063419,98.0551,41.2215,54.7141,305.4687,0,U,41853,999,52686,.23541699E-3,.5744E-4,0
CORVUS BC2,2017-042X,2026-06-22T17:00:12.958848,15.06328239,.00147745,97.4077,334.8437,93.4461,266.8457,0,U,42846,999,48789,.17152937E-3,.2468E-4,0
CORVUS BC1,2017-042Y,2026-06-22T16:51:33.905664,15.06492693,.00134894,97.4107,335.6557,72.8173,287.4530,0,U,42847,999,48792,.13792131E-3,.1981E-4,0
MAKERSAT 0,2017-073D,2026-06-22T09:42:42.728544,15.32242157,.01048684,97.4619,55.9644,254.0472,104.9195,0,U,43016,999,46726,.34975244E-3,.12877E-3,0
