PERSEUS-M1              
1 40039U 14033AF  26173.78976042  .00001603  00000+0  14958-3 0  9998
2 40039  97.9644 118.0134 0009918 280.1587  79.8514 14.95646898651470
POLYITAN-1              
1 40042U 14033AJ  26173.53403150  .00014633  00000+0  45497-3 0  9999
2 40042  98.0946 200.3013 0008856 126.2790 233.9269 15.33415687654418
TIGRISAT                
1 40043U 14033AK  26173.16887621  .00001363  00000+0  16191-3 0  9993
2 40043  97.7838 323.0661 0050401  59.2753 301.3413 14.85177117646369
AEROCUBE 6A             
1 40045U 14033AM  26173.70080329  .00002982  00000+0  25295-3 0  9998
2 40045  97.7248 340.5920 0038474 359.0702   1.0442 14.98148981647446
AEROCUBE 6B             
1 40046U 14033AN  26173.69776735  .00003328  00000+0  27134-3 0  9999
2 40046  97.7245 340.3914 0037939 350.1665   9.8811 14.99610620647586
CANX-4                  
1 40055U 14034C   26173.21817058  .00000642  00000+0  89692-4 0  9996
2 40055  98.3117  48.7158 0012789   1.3069 358.8174 14.81271990645276
CANX-5                  
1 40056U 14034D   26173.21654517  .00000643  00000+0  89721-4 0  9990
2 40056  98.3119  48.7580 0012788   1.4974 358.6273 14.81289258636086
UKUBE-1                 
1 40074U 14037F   26173.25865777  .00005801  00000+0  32724-3 0  9990
2 40074  98.4241 177.0635 0002958 123.4158 236.7353 15.13619709649327
BRITE-PL2 (HEWELIUSZ)   
1 40119U 14049B   26173.26046644  .00001763  00000+0  16801-3 0  9999
2 40119  97.9103 285.2995 0015429  93.1966 267.1019 14.94609987642208
AEROCUBE 5C             
1 40965U 15058B   26173.60207024  .00001406  00000+0  13437-3 0  9994
2 40965  64.7658 245.7447 0131007  61.1610 300.2579 14.91471557366467
AEROCUBE 7              
1 40966U 15058C   26173.58292874  .00002028  00000+0  17107-3 0  9998
2 40966  64.7611 227.9150 0120739  59.5511 301.7465 14.95749749366769
FOX-1A (AO-85)          
1 40967U 15058D   26173.71849476  .00001472  00000+0  14171-3 0  9990
2 40967  64.7742 261.7939 0130756  54.4548 306.8672 14.90988819114394
SINOD-D 1               
1 40968U 15058E   26173.29282321  .00002101  00000+0  17640-3 0  9998
2 40968  64.7743 242.9236 0119376  51.0593 310.1088 14.95929765117421
SNAP-3 ALICE            
1 40970U 15058G   26173.49245109  .00120709  00000+0  13730-2 0  9996
2 40970  64.7497  85.5779 0026581   9.2814 350.8818 15.61246717117716
LMRST-SAT               
1 40971U 15058H   26173.47393801  .00001369  00000+0  13369-3 0  9997
2 40971  64.7748 258.9019 0132354  56.5687 304.7999 14.90606883114347
SNAP-3 EDDIE            
1 40972U 15058J   26173.15813470  .00103886  00000+0  11312-2 0  9994
2 40972  64.7419  77.4218 0026445  13.4086 346.7757 15.62434744119805
PROPCUBE 3              
1 40973U 15058K   26173.42961424  .00001820  00000+0  15981-3 0  9990
2 40973  64.7675 236.1562 0124322  57.8430 303.4672 14.94278583115582
BISONSAT                
1 40974U 15058L   26173.37568859  .00010367  00000+0  50059-3 0  9991
2 40974  64.7579 156.8679 0079673  45.1640 315.5921 15.16296159116401
SNAP-3 JIMI             
1 40975U 15058M   26173.44807821  .00003434  00000+0  24177-3 0  9994
2 40975  64.7635 203.1265 0106500  53.2395 307.8442 15.02334719115017
PROPCUBE 1 (FLORA)      
1 40976U 15058N   26173.76948474  .00001416  00000+0  14302-3 0  9997
2 40976  64.7741 277.9347 0131045  58.7558 302.6314 14.89240956117093
SINOD-D 3               
1 40977U 15058P   26173.66295185  .00002017  00000+0  17846-3 0  9995
2 40977  64.7721 258.7198 0119569  55.9532 305.2865 14.94041549115575
HORYU-4                 
1 41340U 16012D   26172.93363152  .00557871  12891-3  10041-2 0  9997
2 41340  30.9840  44.0609 0007233 302.1792  57.8169 16.00402984571575
RAVAN                   
1 41849U 16067B   26173.25643645  .00040935  00000+0  60736-3 0  9995
2 41849  97.9878  63.4146 0003587  14.8440 345.2917 15.55112539528489
CELTEE 1                
1 41850U 16067C   26173.34291271  .00003631  00000+0  17362-3 0  9990
2 41850  98.0670  40.2612 0001225 129.7919 230.3422 15.19722998526667
OPTICUBE 04             
1 41851U 16067D   26173.64678804  .00001525  00000+0  98856-4 0  9993
2 41851  98.0695  26.2152 0016994  98.6741 261.6412 15.09678584525995
AEROCUBE 8D             
1 41852U 16067E   26172.55346500  .00005364  00000+0  22183-3 0  9992
2 41852  98.0677  43.0564 0004891 112.6989 247.4764 15.24447295526739
AEROCUBE 8C             
1 41853U 16067F   26173.43090124  .00005744  00000+0  23542-3 0  9991
2 41853  98.0551  41.2215 0006341  54.7141 305.4687 15.24707440526866
CORVUS BC2              
1 42846U 17042X   26173.70848332  .00002468  00000+0  17153-3 0  9991
2 42846  97.4077 334.8437 0014774  93.4461 266.8457 15.06328239487895
CORVUS BC1              
1 42847U 17042Y   26173.70247576  .00001981  00000+0  13792-3 0  9999
2 42847  97.4107 335.6557 0013489  72.8173 287.4530 15.06492693487926
MAKERSAT 0              
1 43016U 17073D   26173.40466121  .00012877  00000+0  34975-3 0  9990
2 43016  97.4619  55.9644 0104868 254.0472 104.9195 15.32242157467262
